{"type": "FeatureCollection", "features": [ {"type": "Feature", "properties": {"norad_id": 54234, "name": "NOAA 21 (JPSS-2)", "group": "weather", "lat": 56.296105464844985, "lon": 124.4956998712688, "alt_km": 821.7983335412146, "timestamp": "2025-12-20T22:39:10.292273+00:00", "meta": {"OBJECT_NAME": "NOAA 21 (JPSS-2)", "OBJECT_ID": "2022-150A", "EPOCH": "2025-12-20T13:37:08.649408", "MEAN_MOTION": 14.19526134, "ECCENTRICITY": 0.00018787, "INCLINATION": 98.7473, "RA_OF_ASC_NODE": 290.7783, "ARG_OF_PERICENTER": 22.3745, "MEAN_ANOMALY": 337.7513, "EPHEMERIS_TYPE": 0, "CLASSIFICATION_TYPE": "U", "NORAD_CAT_ID": 54234, "ELEMENT_SET_NO": 999, "REV_AT_EPOCH": 16120, "BSTAR": 4.3241891e-05, "MEAN_MOTION_DOT": 4.7e-07, "MEAN_MOTION_DDOT": 0}, "tle": {"line1": "1 54234U 22150A   25354.56746122  .00000047  00000+0  43242-4 0  9999", "line2": "2 54234  98.7473 290.7783 0001878  22.3745 337.7513 14.19526134161206"}}, "geometry": {"type": "Point", "coordinates": [124.4956998712688, 56.296105464844985]}}, {"type": "Feature", "properties": {"norad_id": 54743, "name": "METEOSAT-12 (MTG-I1)", "group": "weather", "lat": 0.5109995296423153, "lon": 69.24764752869005, "alt_km": 35792.380229893286, "timestamp": "2025-12-20T22:39:10.292289+00:00", "meta": {"OBJECT_NAME": "METEOSAT-12 (MTG-I1)", "OBJECT_ID": "2022-170C", "EPOCH": "2025-12-20T10:23:38.656320", "MEAN_MOTION": 1.00270563, "ECCENTRICITY": 0.00014791, "INCLINATION": 0.6946, "RA_OF_ASC_NODE": 24.8918, "ARG_OF_PERICENTER": 239.7509, "MEAN_ANOMALY": 340.2284, "EPHEMERIS_TYPE": 0, "CLASSIFICATION_TYPE": "U", "NORAD_CAT_ID": 54743, "ELEMENT_SET_NO": 999, "REV_AT_EPOCH": 1118, "BSTAR": 0, "MEAN_MOTION_DOT": 1.6e-07, "MEAN_MOTION_DDOT": 0}, "tle": {"line1": "1 54743U 22170C   25354.43308630  .00000016  00000+0  00000+0 0  9996", "line2": "2 54743   0.6946  24.8918 0001479 239.7509 340.2284  1.00270563 11186"}}, "geometry": {"type": "Point", "coordinates": [69.24764752869005, 0.5109995296423153]}}, {"type": "Feature", "properties": {"norad_id": 55973, "name": "TIANMU-1 03", "group": "weather", "lat": 30.978539285788237, "lon": 153.28259134029216, "alt_km": 438.39885171624246, "timestamp": "2025-12-20T22:39:10.292299+00:00", "meta": {"OBJECT_NAME": "TIANMU-1 03", "OBJECT_ID": "2023-039A", "EPOCH": "2025-12-20T14:43:34.252896", "MEAN_MOTION": 15.41136949, "ECCENTRICITY": 0.00040447, "INCLINATION": 97.5105, "RA_OF_ASC_NODE": 157.486, "ARG_OF_PERICENTER": 38.5633, "MEAN_ANOMALY": 321.5901, "EPHEMERIS_TYPE": 0, "CLASSIFICATION_TYPE": "U", "NORAD_CAT_ID": 55973, "ELEMENT_SET_NO": 999, "REV_AT_EPOCH": 15327, "BSTAR": 0.00025692646, "MEAN_MOTION_DOT": 0.00010559, "MEAN_MOTION_DDOT": 0}, "tle": {"line1": "1 55973U 23039A   25354.61359089  .00010559  00000+0  25693-3 0  9993", "line2": "2 55973  97.5105 157.4860 0004044  38.5633 321.5901 15.41136949153271"}}, "geometry": {"type": "Point", "coordinates": [153.28259134029216, 30.978539285788237]}}, {"type": "Feature", "properties": {"norad_id": 55974, "name": "TIANMU-1 04", "group": "weather", "lat": 24.27409969844242, "lon": -19.578899860096293, "alt_km": 442.9976625867612, "timestamp": "2025-12-20T22:39:10.292308+00:00", "meta": {"OBJECT_NAME": "TIANMU-1 04", "OBJECT_ID": "2023-039B", "EPOCH": "2025-12-20T14:11:29.200416", "MEAN_MOTION": 15.41477613, "ECCENTRICITY": 0.00046523, "INCLINATION": 97.5036, "RA_OF_ASC_NODE": 156.651, "ARG_OF_PERICENTER": 32.642, "MEAN_ANOMALY": 327.5114, "EPHEMERIS_TYPE": 0, "CLASSIFICATION_TYPE": "U", "NORAD_CAT_ID": 55974, "ELEMENT_SET_NO": 999, "REV_AT_EPOCH": 15327, "BSTAR": 0.00025246101, "MEAN_MOTION_DOT": 0.00010493, "MEAN_MOTION_DDOT": 0}, "tle": {"line1": "1 55974U 23039B   25354.59131019  .00010493  00000+0  25246-3 0  9993", "line2": "2 55974  97.5036 156.6510 0004652  32.6420 327.5114 15.41477613153270"}}, "geometry": {"type": "Point", "coordinates": [-19.578899860096293, 24.27409969844242]}}, {"type": "Feature", "properties": {"norad_id": 55975, "name": "TIANMU-1 05", "group": "weather", "lat": 3.8121519746776666, "lon": -21.990475027849953, "alt_km": 446.8677574395588, "timestamp": "2025-12-20T22:39:10.292317+00:00", "meta": {"OBJECT_NAME": "TIANMU-1 05", "OBJECT_ID": "2023-039C", "EPOCH": "2025-12-20T15:39:30.170592", "MEAN_MOTION": 15.41094882, "ECCENTRICITY": 0.00041004, "INCLINATION": 97.5083, "RA_OF_ASC_NODE": 157.2065, "ARG_OF_PERICENTER": 56.9437, "MEAN_ANOMALY": 303.2203, "EPHEMERIS_TYPE": 0, "CLASSIFICATION_TYPE": "U", "NORAD_CAT_ID": 55975, "ELEMENT_SET_NO": 999, "REV_AT_EPOCH": 15326, "BSTAR": 0.00024509949, "MEAN_MOTION_DOT": 0.00010054, "MEAN_MOTION_DDOT": 0}, "tle": {"line1": "1 55975U 23039C   25354.65243253  .00010054  00000+0  24510-3 0  9991", "line2": "2 55975  97.5083 157.2065 0004100  56.9437 303.2203 15.41094882153262"}}, "geometry": {"type": "Point", "coordinates": [-21.990475027849953, 3.8121519746776666]}}, {"type": "Feature", "properties": {"norad_id": 55976, "name": "TIANMU-1 06", "group": "weather", "lat": 34.685600832232126, "lon": -16.784330045547115, "alt_km": 439.6404542500395, "timestamp": "2025-12-20T22:39:10.292326+00:00", "meta": {"OBJECT_NAME": "TIANMU-1 06", "OBJECT_ID": "2023-039D", "EPOCH": "2025-12-20T14:14:14.364384", "MEAN_MOTION": 15.41529317, "ECCENTRICITY": 0.00044, "INCLINATION": 97.5093, "RA_OF_ASC_NODE": 157.6172, "ARG_OF_PERICENTER": 51.3142, "MEAN_ANOMALY": 308.8497, "EPHEMERIS_TYPE": 0, "CLASSIFICATION_TYPE": "U", "NORAD_CAT_ID": 55976, "ELEMENT_SET_NO": 999, "REV_AT_EPOCH": 15327, "BSTAR": 0.0002523152, "MEAN_MOTION_DOT": 0.00010504, "MEAN_MOTION_DDOT": 0}, "tle": {"line1": "1 55976U 23039D   25354.59322181  .00010504  00000+0  25232-3 0  9995", "line2": "2 55976  97.5093 157.6172 0004400  51.3142 308.8497 15.41529317153275"}}, "geometry": {"type": "Point", "coordinates": [-16.784330045547115, 34.685600832232126]}}, {"type": "Feature", "properties": {"norad_id": 56232, "name": "FENGYUN 3G", "group": "weather", "lat": -43.27480412220003, "lon": 132.83775512507194, "alt_km": 411.2323109932968, "timestamp": "2025-12-20T22:39:10.292337+00:00", "meta": {"OBJECT_NAME": "FENGYUN 3G", "OBJECT_ID": "2023-055A", "EPOCH": "2025-12-20T13:40:01.299936", "MEAN_MOTION": 15.54080275, "ECCENTRICITY": 0.00093682, "INCLINATION": 49.9914, "RA_OF_ASC_NODE": 187.0363, "ARG_OF_PERICENTER": 183.7247, "MEAN_ANOMALY": 176.3652, "EPHEMERIS_TYPE": 0, "CLASSIFICATION_TYPE": "U", "NORAD_CAT_ID": 56232, "ELEMENT_SET_NO": 999, "REV_AT_EPOCH": 15224, "BSTAR": 0.00032602326, "MEAN_MOTION_DOT": 0.00021191, "MEAN_MOTION_DDOT": 0}, "tle": {"line1": "1 56232U 23055A   25354.56945949  .00021191  00000+0  32602-3 0  9992", "line2": "2 56232  49.9914 187.0363 0009368 183.7247 176.3652 15.54080275152243"}}, "geometry": {"type": "Point", "coordinates": [132.83775512507194, -43.27480412220003]}}, {"type": "Feature", "properties": {"norad_id": 57166, "name": "METEOR-M2 3", "group": "weather", "lat": 17.81826067865918, "lon": -128.86044514322145, "alt_km": 814.6023629955898, "timestamp": "2025-12-20T22:39:10.292346+00:00", "meta": {"OBJECT_NAME": "METEOR-M2 3", "OBJECT_ID": "2023-091A", "EPOCH": "2025-12-20T15:08:59.669952", "MEAN_MOTION": 14.24026965, "ECCENTRICITY": 0.00034652, "INCLINATION": 98.6366, "RA_OF_ASC_NODE": 48.0324, "ARG_OF_PERICENTER": 345.1743, "MEAN_ANOMALY": 14.9334, "EPHEMERIS_TYPE": 0, "CLASSIFICATION_TYPE": "U", "NORAD_CAT_ID": 57166, "ELEMENT_SET_NO": 999, "REV_AT_EPOCH": 12910, "BSTAR": 1.9282346e-05, "MEAN_MOTION_DOT": 1e-08, "MEAN_MOTION_DDOT": 0}, "tle": {"line1": "1 57166U 23091A   25354.63124618  .00000001  00000+0  19282-4 0  9996", "line2": "2 57166  98.6366  48.0324 0003465 345.1743  14.9334 14.24026965129107"}}, "geometry": {"type": "Point", "coordinates": [-128.86044514322145, 17.81826067865918]}}, {"type": "Feature", "properties": {"norad_id": 57399, "name": "TIANMU-1 07", "group": "weather", "lat": 1.4936611578200907, "lon": -135.19584199139337, "alt_km": 485.87524747751104, "timestamp": "2025-12-20T22:39:10.292355+00:00", "meta": {"OBJECT_NAME": "TIANMU-1 07", "OBJECT_ID": "2023-101A", "EPOCH": "2025-12-20T14:01:03.552960", "MEAN_MOTION": 15.28174409, "ECCENTRICITY": 0.00052919, "INCLINATION": 97.2866, "RA_OF_ASC_NODE": 44.2611, "ARG_OF_PERICENTER": 61.5583, "MEAN_ANOMALY": 298.619, "EPHEMERIS_TYPE": 0, "CLASSIFICATION_TYPE": "U", "NORAD_CAT_ID": 57399, "ELEMENT_SET_NO": 999, "REV_AT_EPOCH": 13435, "BSTAR": 0.00017229696, "MEAN_MOTION_DOT": 4.66e-05, "MEAN_MOTION_DDOT": 0}, "tle": {"line1": "1 57399U 23101A   25354.58406890  .00004660  00000+0  17230-3 0  9990", "line2": "2 57399  97.2866  44.2611 0005291  61.5583 298.6190 15.28174409134358"}}, "geometry": {"type": "Point", "coordinates": [-135.19584199139337, 1.4936611578200907]}}, {"type": "Feature", "properties": {"norad_id": 57400, "name": "TIANMU-1 08", "group": "weather", "lat": -0.6430498899023664, "lon": 44.491902311096915, "alt_km": 482.10906717400576, "timestamp": "2025-12-20T22:39:10.292365+00:00", "meta": {"OBJECT_NAME": "TIANMU-1 08", "OBJECT_ID": "2023-101B", "EPOCH": "2025-12-20T14:47:52.920672", "MEAN_MOTION": 15.28157487, "ECCENTRICITY": 0.00072269, "INCLINATION": 97.2854, "RA_OF_ASC_NODE": 44.0896, "ARG_OF_PERICENTER": 61.855, "MEAN_ANOMALY": 298.3419, "EPHEMERIS_TYPE": 0, "CLASSIFICATION_TYPE": "U", "NORAD_CAT_ID": 57400, "ELEMENT_SET_NO": 999, "REV_AT_EPOCH": 13435, "BSTAR": 0.00018124385, "MEAN_MOTION_DOT": 4.904e-05, "MEAN_MOTION_DDOT": 0}, "tle": {"line1": "1 57400U 23101B   25354.61658473  .00004904  00000+0  18124-3 0  9997", "line2": "2 57400  97.2854  44.0896 0007226  61.8550 298.3419 15.28157487134356"}}, "geometry": {"type": "Point", "coordinates": [44.491902311096915, -0.6430498899023664]}}]}